$$SOE
2459580.500000000, A.D. 2022-Jan-01 00:00:00.0000, -2.398262869288335E+08, -1.396712882077772E+08, 9.839212094534491E+07,
2459587.500000000, A.D. 2022-Jan-08 00:00:00.0000, -2.319436153159810E+08, -1.488020498808878E+08, 1.018175625160051E+08,
2459594.500000000, A.D. 2022-Jan-15 00:00:00.0000, -2.236169732621859E+08, -1.576479304867458E+08, 1.050480801470998E+08,
2459601.500000000, A.D. 2022-Jan-22 00:00:00.0000, -2.148591983106165E+08, -1.661898114520549E+08, 1.080760329520333E+08,
2459608.500000000, A.D. 2022-Jan-29 00:00:00.0000, -2.056840541764641E+08, -1.744088076340146E+08, 1.108940129134763E+08,
2459615.500000000, A.D. 2022-Feb-05 00:00:00.0000, -1.961062435096320E+08, -1.822863025819480E+08, 1.134948631595044E+08,
2459622.500000000, A.D. 2022-Feb-12 00:00:00.0000, -1.861414174514938E+08, -1.898039872011153E+08, 1.158716969532518E+08,
2459629.500000000, A.D. 2022-Feb-19 00:00:00.0000, -1.758061830596602E+08, -1.969438995292553E+08, 1.180179177212952E+08,
2459636.500000000, A.D. 2022-Feb-26 00:00:00.0000, -1.651181096372957E+08, -2.036884664114453E+08, 1.199272401785115E+08,
2459643.500000000, A.D. 2022-Mar-05 00:00:00.0000, -1.540957335100437E+08, -2.100205477391061E+08, 1.215937124683076E+08,
2459650.500000000, A.D. 2022-Mar-12 00:00:00.0000, -1.427585607116690E+08, -2.159234833533000E+08, 1.230117392680781E+08,
2459657.500000000, A.D. 2022-Mar-19 00:00:00.0000, -1.311270671747869E+08, -2.213811425958504E+08, 1.241761058227929E+08,
2459664.500000000, A.D. 2022-Mar-26 00:00:00.0000, -1.192226960566137E+08, -2.263779764944680E+08, 1.250820028554260E+08,
2459671.500000000, A.D. 2022-Apr-02 00:00:00.0000, -1.070678517675652E+08, -2.308990725839969E+08, 1.257250522714577E+08,
2459678.500000000, A.D. 2022-Apr-09 00:00:00.0000, -9.468589004818301E+07, -2.349302122718166E+08, 1.261013335351515E+08,
2459685.500000000, A.D. 2022-Apr-16 00:00:00.0000, -8.210110333668859E+07, -2.384579299732369E+08, 1.262074106176637E+08,
2459692.500000000, A.D. 2022-Apr-23 00:00:00.0000, -6.933870228120172E+07, -2.414695727767192E+08, 1.260403595841881E+08,
2459699.500000000, A.D. 2022-Apr-30 00:00:00.0000, -5.642479484559766E+07, -2.439533626864333E+08, 1.255977966568208E+08,
2459706.500000000, A.D. 2022-May-07 00:00:00.0000, -4.338635952972288E+07, -2.458984631710976E+08, 1.248779061463805E+08,
2459713.500000000, A.D. 2022-May-14 00:00:00.0000, -3.025121091282495E+07, -2.472950466817500E+08, 1.238794681891883E+08,
2459720.500000000, A.D. 2022-May-21 00:00:00.0000, -1.704795916703541E+07, -2.481343620195483E+08, 1.226018863213732E+08,
2459727.500000000, A.D. 2022-May-28 00:00:00.0000, -3.805963655501443E+06, -2.484088020920721E+08, 1.210452146084290E+08,
2459734.500000000, A.D. 2022-Jun-04 00:00:00.0000, 9.444719998329962E+06, -2.481119718918274E+08, 1.192101840026404E+08,
2459741.500000000, A.D. 2022-Jun-11 00:00:00.0000, 2.267339981414773E+07, -2.472387561563885E+08, 1.170982276126827E+08,
2459748.500000000, A.D. 2022-Jun-18 00:00:00.0000, 3.584881462251308E+07, -2.457853860995792E+08, 1.147115045573217E+08,
2459755.500000000, A.D. 2022-Jun-25 00:00:00.0000, 4.893920872162165E+07, -2.437495045928234E+08, 1.120529220543463E+08,
2459762.500000000, A.D. 2022-Jul-02 00:00:00.0000, 6.191241428054335E+07, -2.411302291548741E+08, 1.091261553691710E+08,
2459769.500000000, A.D. 2022-Jul-09 00:00:00.0000, 7.473594191790442E+07, -2.379282118158922E+08, 1.059356652295937E+08,
2459776.500000000, A.D. 2022-Jul-16 00:00:00.0000, 8.737707934516054E+07, -2.341456939718043E+08, 1.024867124150328E+08,
2459783.500000000, A.D. 2022-Jul-23 00:00:00.0000, 9.980299571720123E+07, -2.297865553112890E+08, 9.878536933353192E+07,
2459790.500000000, A.D. 2022-Jul-30 00:00:00.0000, 1.119808515057771E+08, -2.248563592978267E+08, 9.483852790770261E+07,
2459797.500000000, A.D. 2022-Aug-06 00:00:00.0000, 1.238779171102421E+08, -2.193623936719200E+08, 9.065390310803920E+07,
2459804.500000000, A.D. 2022-Aug-13 00:00:00.0000, 1.354616988709817E+08, -2.133137023352292E+08, 8.624003207393014E+07,
2459811.500000000, A.D. 2022-Aug-20 00:00:00.0000, 1.467000702694375E+08, -2.067211082528697E+08, 8.160626859360670E+07,
2459818.500000000, A.D. 2022-Aug-27 00:00:00.0000, 1.575614075994180E+08, -1.995972272679689E+08, 7.676277258179089E+07,
2459825.500000000, A.D. 2022-Sep-03 00:00:00.0000, 1.680147294389357E+08, -1.919564721624760E+08, 7.172049427172866E+07,
2459832.500000000, A.D. 2022-Sep-10 00:00:00.0000, 1.780298389631782E+08, -1.838150462402326E+08, 6.649115291455282E+07,
2459839.500000000, A.D. 2022-Sep-17 00:00:00.0000, 1.875774679550385E+08, -1.751909258290549E+08, 6.108720983874480E+07,
2459846.500000000, A.D. 2022-Sep-24 00:00:00.0000, 1.966294212882308E+08, -1.661038312568376E+08, 5.552183577702422E+07,
2459853.500000000, A.D. 2022-Oct-01 00:00:00.0000, 2.051587207465557E+08, -1.565751859497537E+08, 4.980887242592443E+07,
2459860.500000000, A.D. 2022-Oct-08 00:00:00.0000, 2.131397471468185E+08, -1.466280629039522E+08, 4.396278832079715E+07,
2459867.500000000, A.D. 2022-Oct-15 00:00:00.0000, 2.205483783457135E+08, -1.362871172804739E+08, 3.799862937703132E+07,
2459874.500000000, A.D. 2022-Oct-22 00:00:00.0000, 2.273621194255545E+08, -1.255785069307920E+08, 3.193196440674779E+07,
2459881.500000000, A.D. 2022-Oct-29 00:00:00.0000, 2.335602260294003E+08, -1.145298037372929E+08, 2.577882549869031E+07,
2459888.500000000, A.D. 2022-Nov-05 00:00:00.0000, 2.391238214571176E+08, -1.031698934994300E+08, 1.955564371195793E+07,
2459895.500000000, A.D. 2022-Nov-12 00:00:00.0000, 2.440360041398334E+08, -9.152886376136546E+07, 1.327918087234636E+07,
2459902.500000000, A.D. 2022-Nov-19 00:00:00.0000, 2.482819434496744E+08, -7.963788138003072E+07, 6.966458038862288E+06,
2459909.500000000, A.D. 2022-Nov-26 00:00:00.0000, 2.518489629064868E+08, -6.752906124351116E+07, 6.346812286689356E+05,
2459916.500000000, A.D. 2022-Dec-03 00:00:00.0000, 2.547266098994078E+08, -5.523532731636181E+07, -5.698834915781528E+06,
2459923.500000000, A.D. 2022-Dec-10 00:00:00.0000, 2.569067110988176E+08, -4.279026729143639E+07, -1.201674477732925E+07,
2459930.500000000, A.D. 2022-Dec-17 00:00:00.0000, 2.583834129136233E+08, -3.022798228203861E+07, -1.830174996547292E+07,
2459937.500000000, A.D. 2022-Dec-24 00:00:00.0000, 2.591532066477829E+08, -1.758293311613636E+07, -2.453667730033658E+07,
2459944.500000000, A.D. 2022-Dec-31 00:00:00.0000, 2.592149384700444E+08, -4.889784677263558E+06, -3.070455582209884E+07,
2459951.500000000, A.D. 2023-Jan-07 00:00:00.0000, 2.585698042976418E+08, 7.816751111535044E+06, -3.678869199069061E+07,
2459958.500000000, A.D. 2023-Jan-14 00:00:00.0000, 2.572213278697966E+08, 2.050207261155985E+07, -4.277274212260840E+07,
2459965.500000000, A.D. 2023-Jan-21 00:00:00.0000, 2.551753218385341E+08, 3.313184138834974E+07, -4.864078159225649E+07,
2459972.500000000, A.D. 2023-Jan-28 00:00:00.0000, 2.524398361839062E+08, 4.567212904989840E+07, -5.437737053605691E+07,
2459979.500000000, A.D. 2023-Feb-04 00:00:00.0000, 2.490250945541320E+08, 5.808955964382581E+07, -5.996761523634451E+07,
2459986.500000000, A.D. 2023-Feb-11 00:00:00.0000, 2.449434176999434E+08, 7.035144615403037E+07, -6.539722453902900E+07,
2459993.500000000, A.D. 2023-Feb-18 00:00:00.0000, 2.402091350473568E+08, 8.242591917479192E+07, -7.065256093978238E+07,
2460000.500000000, A.D. 2023-Feb-25 00:00:00.0000, 2.348384859285683E+08, 9.428204668503171E+07, -7.572068605208123E+07,
2460007.500000000, A.D. 2023-Mar-04 00:00:00.0000, 2.288495119512511E+08, 1.058899441824417E+08, -8.058940026321948E+07,
2460014.500000000, A.D. 2023-Mar-11 00:00:00.0000, 2.222619419678730E+08, 1.172208745574165E+08, -8.524727648408306E+07,
2460021.500000000, A.D. 2023-Mar-18 00:00:00.0000, 2.150970711271899E+08, 1.282473371909866E+08, -8.968368798284994E+07,
2460028.500000000, A.D. 2023-Mar-25 00:00:00.0000, 2.073776356280631E+08, 1.389431459361455E+08, -9.388883037722373E+07,
2460035.500000000, A.D. 2023-Apr-01 00:00:00.0000, 1.991276849871406E+08, 1.492834962492386E+08, -9.785373791418107E+07,
2460042.500000000, A.D. 2023-Apr-08 00:00:00.0000, 1.903724525320789E+08, 1.592450227198564E+08, -1.015702940583527E+08,
2460049.500000000, A.D. 2023-Apr-15 00:00:00.0000, 1.811382230358689E+08, 1.688058460824474E+08, -1.050312365016430E+08,
2460056.500000000, A.D. 2023-Apr-22 00:00:00.0000, 1.714522004980072E+08, 1.779456069830610E+08, -1.082301573233811E+08,
2460063.500000000, A.D. 2023-Apr-29 00:00:00.0000, 1.613423799013582E+08, 1.866454891614307E+08, -1.111614987138042E+08,
2460070.500000000, A.D. 2023-May-06 00:00:00.0000, 1.508374221521570E+08, 1.948882343333910E+08, -1.138205443185395E+08,
2460077.500000000, A.D. 2023-May-13 00:00:00.0000, 1.399665320826850E+08, 2.026581484690215E+08, -1.162034065801006E+08,
2460084.500000000, A.D. 2023-May-20 00:00:00.0000, 1.287593404920200E+08, 2.099410996229622E+08, -1.183070105470401E+08,
2460091.500000000, A.D. 2023-May-27 00:00:00.0000, 1.172457910407050E+08, 2.167245079762622E+08, -1.201290745851987E+08,
2460098.500000000, A.D. 2023-Jun-03 00:00:00.0000, 1.054560325621386E+08, 2.229973288311726E+08, -1.216680884062638E+08,
2460105.500000000, A.D. 2023-Jun-10 00:00:00.0000, 9.342031720703459E+07, 2.287500292733731E+08, -1.229232888205722E+08,
2460112.500000000, A.D. 2023-Jun-17 00:00:00.0000, 8.116890479586534E+07, 2.339745591702483E+08, -1.238946336172517E+08,
2460119.500000000, A.D. 2023-Jun-24 00:00:00.0000, 6.873197388576788E+07, 2.386643172799389E+08, -1.245827739696485E+08,
2460126.500000000, A.D. 2023-Jul-01 00:00:00.0000, 5.613953990325783E+07, 2.428141139999044E+08, -1.249890256770610E+08,
2460133.500000000, A.D. 2023-Jul-08 00:00:00.0000, 4.342137869263586E+07, 2.464201322432346E+08, -1.251153393501937E+08,
2460140.500000000, A.D. 2023-Jul-15 00:00:00.0000, 3.060695414547789E+07, 2.494798842371238E+08, -1.249642699409367E+08,
2460147.500000000, A.D. 2023-Jul-22 00:00:00.0000, 1.772535330107359E+07, 2.519921638119191E+08, -1.245389462993619E+08,
$$EOE